{
  "norad_id": 66657,
  "name": "SPIRONE",
  "history": [
    {
      "epoch": "2026-03-28T18:47:58.532640Z",
      "apogee_km": 595.4818933861525,
      "perigee_km": 580.5428467390666,
      "latitude_deg": -2.0947547308391748e-05,
      "longitude_deg": -89.93229087278279,
      "height_km": 589.1584971624878,
      "semi_major_axis_km": 6966.14937006261,
      "eccentricity": 0.00107226,
      "inclination_deg": 97.745,
      "raan_deg": 18.2604,
      "arg_perigee_deg": 284.7787,
      "mean_anomaly_deg": 75.2244,
      "mean_motion_rev_day": 14.93184896
    }
  ]
}